NORAD_CAT_ID,OBJECT_NAME,OBJECT_TYPE,EPOCH,MEAN_MOTION,ECCENTRICITY,INCLINATION,RA_OF_ASC_NODE,ARG_OF_PERICENTER,MEAN_ANOMALY,BSTAR,MEAN_MOTION_DOT,MEAN_MOTION_DDOT,TLE_LINE0,TLE_LINE1,TLE_LINE2,SEMIMAJOR_AXIS,PERIOD,APOGEE,PERIGEE,DECAYED
55311.0,STARLINK-5312,PAYLOAD,2023-10-12 19:43:27,14.98334418,0.0002794,70.0021,60.502,271.0622,89.0216,3.7956e-05,3.6e-06,0.0,0 STARLINK-5312,1 55311U 23010AU  23285.82185099  .00000360  00000-0  37956-4 0  9996,2 55311  70.0021  60.5020 0002794 271.0622  89.0216 14.98334418 42997,6950.179,96.107,573.986,570.102,0.0
55311.0,STARLINK-5312,PAYLOAD,2023-10-13 11:44:48,14.98325728,0.0002799,70.0022,58.819,273.205,86.8788,8.212e-05,8.87e-06,0.0,0 STARLINK-5312,1 55311U 23010AU  23286.48945409  .00000887  00000-0  82120-4 0  9995,2 55311  70.0022  58.8190 0002799 273.2050  86.8788 14.98325728 41903,6950.206,96.107,574.016,570.126,0.0
55311.0,STARLINK-5312,PAYLOAD,2023-10-13 14:57:04,14.98327619,0.0002903,70.0021,58.4824,273.0895,86.9932,9.9633e-05,1.096e-05,0.0,0 STARLINK-5312,1 55311U 23010AU  23286.62297254  .00001096  00000-0  99633-4 0  9999,2 55311  70.0021  58.4824 0002903 273.0895  86.9932 14.98327619 43112,6950.2,96.107,574.083,570.048,0.0
55311.0,STARLINK-5312,PAYLOAD,2023-10-13 18:09:20,14.98329759,0.000283,70.0022,58.1457,272.9465,87.1371,9.6714e-05,1.061e-05,0.0,0 STARLINK-5312,1 55311U 23010AU  23286.75649137  .00001061  00000-0  96714-4 0  9993,2 55311  70.0022  58.1457 0002830 272.9465  87.1371 14.98329759 43131,6950.194,96.107,574.026,570.092,0.0
55311.0,STARLINK-5312,PAYLOAD,2023-10-14 13:22:57,14.98329762,0.000279,70.0022,56.1261,273.3756,86.7084,-7.2199e-05,-9.54e-06,0.0,0 STARLINK-5312,1 55311U 23010AU  23287.55761525 -.00000954  00000-0 -72199-4 0  9991,2 55311  70.0022  56.1261 0002790 273.3756  86.7084 14.98329762 43258,6950.194,96.107,573.998,570.12,0.0
55311.0,STARLINK-5312,PAYLOAD,2023-10-14 18:11:22,14.98328787,0.0002676,70.0017,55.6189,260.2279,99.8578,-3.0425e-05,-4.56e-06,0.0,0 STARLINK-5312,1 55311U 23010AU  23287.75789407 -.00000456  00000-0 -30425-4 0  9995,2 55311  70.0017  55.6189 0002676 260.2279  99.8578 14.98328787 42093,6950.197,96.107,573.922,570.202,0.0
55311.0,STARLINK-5312,PAYLOAD,2023-10-15 15:01:07,14.98328096,0.0003043,70.0018,53.4336,271.029,89.052,-6.5359e-05,-8.73e-06,0.0,0 STARLINK-5312,1 55311U 23010AU  23288.62577686 -.00000873  00000-0 -65359-4 0  9993,2 55311  70.0018  53.4336 0003043 271.0290  89.0520 14.98328096 43414,6950.199,96.107,574.179,569.949,0.0
55311.0,STARLINK-5312,PAYLOAD,2023-10-15 16:37:18,14.98289492,0.0002684,70.0021,53.2647,262.8602,97.2252,-0.00049673,-6.008e-05,0.0,0 STARLINK-5312,1 55311U 23010AU  23288.69257001 -.00006008  00000-0 -49673-3 0  9992,2 55311  70.0021  53.2647 0002684 262.8602  97.2252 14.98289492 42234,6950.318,96.11,574.049,570.318,0.0
55311.0,STARLINK-5312,PAYLOAD,2023-10-16 08:38:35,14.98325327,0.0002947,70.002,51.5809,266.4169,93.6653,4.2549e-05,4.15e-06,0.0,0 STARLINK-5312,1 55311U 23010AU  23289.36013592  .00000415  00000-0  42549-4 0  9992,2 55311  70.0020  51.5809 0002947 266.4169  93.6653 14.98325327 42338,6950.207,96.107,574.121,570.024,0.0
55311.0,STARLINK-5312,PAYLOAD,2023-10-16 13:26:59,14.98326008,0.0002953,70.0018,51.076,266.6795,93.4026,4.0597e-05,3.91e-06,0.0,0 STARLINK-5312,1 55311U 23010AU  23289.56041613  .00000391  00000-0  40597-4 0  9993,2 55311  70.0018  51.0760 0002953 266.6795  93.4026 14.98326008 43554,6950.205,96.107,574.123,570.018,0.0
55311.0,STARLINK-5312,PAYLOAD,2023-10-16 16:39:15,14.98330785,0.0003009,70.0015,50.7394,268.5416,91.5398,6.9078e-05,7.31e-06,0.0,0 STARLINK-5312,1 55311U 23010AU  23289.69393242  .00000731  00000-0  69078-4 0  9998,2 55311  70.0015  50.7394 0003009 268.5416  91.5398 14.98330785 43574,6950.19,96.107,574.147,569.964,0.0
55311.0,STARLINK-5312,PAYLOAD,2023-10-17 11:52:52,14.98329168,0.0002947,70.0016,48.7196,270.1618,89.9203,4.8344e-05,4.84e-06,0.0,0 STARLINK-5312,1 55311U 23010AU  23290.49505410  .00000484  00000-0  48344-4 0  9998,2 55311  70.0016  48.7196 0002947 270.1618  89.9203 14.98329168 42506,6950.195,96.107,574.109,570.012,0.0
55311.0,STARLINK-5312,PAYLOAD,2023-10-18 00:41:57,14.98331659,0.0003013,70.0018,47.3734,272.0315,88.0499,3.5002e-06,-5.1e-07,0.0,0 STARLINK-5312,1 55311U 23010AU  23291.02913383 -.00000051  00000-0  35002-5 0  9999,2 55311  70.0018  47.3734 0003013 272.0315  88.0499 14.98331659 43776,6950.188,96.107,574.147,569.959,0.0
55311.0,STARLINK-5312,PAYLOAD,2023-10-18 11:54:53,14.98328438,0.0002907,70.0023,46.1954,272.8869,87.1957,6.5364e-06,-1.5e-07,0.0,0 STARLINK-5312,1 55311U 23010AU  23291.49645629 -.00000015  00000-0  65364-5 0  9999,2 55311  70.0023  46.1954 0002907 272.8869  87.1957 14.98328438 42652,6950.198,96.107,574.083,570.042,0.0
55311.0,STARLINK-5312,PAYLOAD,2023-10-19 00:43:57,14.98334507,0.000272,70.0025,44.8491,272.047,88.0378,8.9908e-06,1.4e-07,0.0,0 STARLINK-5312,1 55311U 23010AU  23292.03053145  .00000014  00000-0  89908-5 0  9994,2 55311  70.0025  44.8491 0002720 272.0470  88.0378 14.98334507 42738,6950.179,96.107,573.934,570.154,0.0
55311.0,STARLINK-5312,PAYLOAD,2023-10-19 11:56:53,14.98338236,0.0002803,70.002,43.6707,270.5241,89.5597,7.4163e-05,7.92e-06,0.0,0 STARLINK-5312,1 55311U 23010AU  23292.49784480  .00000792  00000-0  74163-4 0  9996,2 55311  70.0020  43.6707 0002803 270.5241  89.5597 14.98338236 43992,6950.167,96.106,573.981,570.084,0.0
55311.0,STARLINK-5312,PAYLOAD,2023-10-20 00:45:58,14.98337531,0.0002824,70.002,42.3242,269.5866,90.497,9.5044e-05,1.041e-05,0.0,0 STARLINK-5312,1 55311U 23010AU  23293.03192151  .00001041  00000-0  95044-4 0  9994,2 55311  70.0020  42.3242 0002824 269.5866  90.4970 14.98337531 42886,6950.17,96.107,573.997,570.072,0.0
55311.0,STARLINK-5312,PAYLOAD,2023-10-20 11:58:56,14.98316642,0.000293,70.002,41.146,267.6133,92.4691,-0.00013231,-1.671e-05,0.0,0 STARLINK-5312,1 55311U 23010AU  23293.49926104 -.00001671  00000-0 -13231-3 0  9995,2 55311  70.0020  41.1460 0002930 267.6133  92.4691 14.98316642 42959,6950.234,96.108,574.136,570.063,0.0
55311.0,STARLINK-5312,PAYLOAD,2023-10-21 12:00:56,14.9833301,0.0002896,70.0023,38.6219,267.125,92.9578,-4.2944e-05,-6.05e-06,0.0,0 STARLINK-5312,1 55311U 23010AU  23294.50064931 -.00000605  00000-0 -42944-4 0  9999,2 55311  70.0023  38.6219 0002896 267.1250  92.9578 14.98333010 43106,6950.184,96.107,574.061,570.036,0.0
55311.0,STARLINK-5312,PAYLOAD,2023-10-21 13:37:03,14.98339753,0.0002794,70.0018,38.4521,260.473,99.6114,9.1322e-06,1.6e-07,0.0,0 STARLINK-5312,1 55311U 23010AU  23294.56740299  .00000016  00000-0  91322-5 0  9992,2 55311  70.0018  38.4521 0002794 260.4730  99.6114 14.98339753 44303,6950.163,96.106,573.97,570.086,0.0
55311.0,STARLINK-5312,PAYLOAD,2023-10-22 00:50:00,14.98307446,0.0003025,70.0008,37.275,265.4919,94.5894,0.00044864,5.261e-05,0.0,0 STARLINK-5312,1 55311U 23010AU  23295.03472711  .00005261  00000-0  44864-3 0  9990,2 55311  70.0008  37.2750 0003025 265.4919  94.5894 14.98307446 43183,6950.263,96.108,574.23,570.025,0.0
55311.0,STARLINK-5312,PAYLOAD,2023-10-22 13:39:05,14.9831742,0.0003083,70.0015,35.9276,262.9445,97.1363,5.0944e-05,5.15e-06,0.0,0 STARLINK-5312,1 55311U 23010AU  23295.56881768  .00000515  00000-0  50944-4 0  9998,2 55311  70.0015  35.9276 0003083 262.9445  97.1363 14.98317420 44453,6950.232,96.108,574.24,569.954,0.0
55311.0,STARLINK-5312,PAYLOAD,2023-10-22 16:51:22,14.98317521,0.0002918,70.002,35.5913,260.341,99.7419,5.6735e-05,5.84e-06,0.0,0 STARLINK-5312,1 55311U 23010AU  23295.70233869  .00000584  00000-0  56735-4 0  9997,2 55311  70.0020  35.5913 0002918 260.3410  99.7419 14.98317521 44477,6950.231,96.108,574.125,570.068,0.0
55311.0,STARLINK-5312,PAYLOAD,2023-10-23 13:41:05,14.98340902,0.0002482,70.0023,33.4028,246.731,113.3587,0.00010114,1.114e-05,0.0,0 STARLINK-5312,1 55311U 23010AU  23296.57020417  .00001114  00000-0  10114-3 0  9996,2 55311  70.0023  33.4028 0002482 246.7310 113.3587 14.98340902 43418,6950.159,96.106,573.749,570.299,0.0
55311.0,STARLINK-5312,PAYLOAD,2023-10-24 12:06:59,14.98324598,0.0003019,70.0022,31.0473,266.2096,93.8718,0.00010425,1.151e-05,0.0,0 STARLINK-5312,1 55311U 23010AU  23297.50485388  .00001151  00000-0  10425-3 0  9998,2 55311  70.0022  31.0473 0003019 266.2096  93.8718 14.98324598 43556,6950.21,96.107,574.173,569.976,0.0
55311.0,STARLINK-5312,PAYLOAD,2023-10-25 13:45:08,14.98327428,0.0002378,70.0036,28.3561,235.4085,124.685,-2.4256e-05,-3.82e-06,0.0,0 STARLINK-5312,1 55311U 23010AU  23298.57301358 -.00000382  00000-0 -24256-4 0  9995,2 55311  70.0036  28.3561 0002378 235.4085 124.6850 14.98327428 43714,6950.201,96.107,573.719,570.413,0.0
55311.0,STARLINK-5312,PAYLOAD,2023-10-26 10:34:53,14.98319371,0.0002648,70.0028,26.1673,259.2488,100.8373,-0.00011372,-1.449e-05,0.0,0 STARLINK-5312,1 55311U 23010AU  23299.44090084 -.00001449  00000-0 -11372-3 0  9992,2 55311  70.0028  26.1673 0002648 259.2488 100.8373 14.98319371 43844,6950.226,96.108,573.931,570.25,0.0
55311.0,STARLINK-5312,PAYLOAD,2023-10-26 13:47:09,14.98323999,0.0002466,70.0051,25.8347,251.8117,108.2774,3.2626e-06,-5.4e-07,0.0,0 STARLINK-5312,1 55311U 23010AU  23299.57441513 -.00000054  00000-0  32626-5 0  9990,2 55311  70.0051  25.8347 0002466 251.8117 108.2774 14.98323999 45052,6950.211,96.107,573.79,570.363,0.0
55311.0,STARLINK-5312,PAYLOAD,2023-10-26 15:23:17,14.98329805,0.0002559,70.003,25.6624,275.8623,84.2244,7.5078e-06,-3e-08,0.0,0 STARLINK-5312,1 55311U 23010AU  23299.64117189 -.00000003  00000-0  75078-5 0  9999,2 55311  70.0030  25.6624 0002559 275.8623  84.2244 14.98329805 45064,6950.193,96.107,573.837,570.28,0.0
55311.0,STARLINK-5312,PAYLOAD,2023-10-26 23:23:56,14.98339052,0.0002961,70.0032,24.8208,272.9147,87.1673,2.0064e-05,1.47e-06,0.0,0 STARLINK-5312,1 55311U 23010AU  23299.97496379  .00000147  00000-0  20064-4 0  9998,2 55311  70.0032  24.8208 0002961 272.9147  87.1673 14.98339052 43927,6950.165,96.106,574.088,569.972,0.0
